GLOBALSTAR M068 [-]     
1 32266U 07048D   24096.59812662 -.00000054  00000+0  27569-3 0  9999
2 32266  51.9877 196.1304 0000670 211.6028 161.2356 12.62783679762274
GLOBALSTAR M079 [+]     
1 37188U 10054A   24096.55106054 -.00000101  00000+0  13074-4 0  9995
2 37188  52.0063  32.0187 0000761  67.4601 103.3830 12.62267836621183
GLOBALSTAR M074 [+]     
1 37189U 10054B   24096.78143413 -.00000099  00000+0  25017-4 0  9997
2 37189  52.0042  30.7087 0000501  74.5805 303.0478 12.62266466621828
GLOBALSTAR M076 [+]     
1 37190U 10054C   24096.60411502 -.00000100  00000+0  22040-4 0  9993
2 37190  52.0054  31.3791 0000942  99.2163  72.6362 12.62276161621512
GLOBALSTAR M077 [+]     
1 37191U 10054D   24096.89831509 -.00000079  00000+0  13986-3 0  9991
2 37191  52.0096 347.2176 0000663  87.6978  40.9583 12.62271047621926
GLOBALSTAR M075 [+]     
1 37192U 10054E   24096.90014222 -.00000099  00000+0  25253-4 0  9992
2 37192  51.9948  72.9779 0000464  62.9819 314.3093 12.62272092620789
GLOBALSTAR M073 [+]     
1 37193U 10054F   24096.91411973 -.00000075  00000+0  15974-3 0  9990
2 37193  52.0083 346.4236 0000813  86.3897 354.9443 12.62263213622611
GLOBALSTAR M083 [+]     
1 37739U 11033A   24096.83355851 -.00000062  00000+0  23440-3 0  9990
2 37739  51.9856 295.9984 0000708  77.9522 297.4550 12.62267817591625
GLOBALSTAR M088 [+]     
1 37740U 11033B   24096.56896953 -.00000114  00000+0 -56892-4 0  9992
2 37740  51.9725 202.6612 0000548  94.7633 278.3087 12.62266622587134
GLOBALSTAR M091 [+]     
1 37741U 11033C   24096.61160441 -.00000091  00000+0  72936-4 0  9995
2 37741  51.9983 165.3040 0000386  73.1062  73.9894 12.62261293587929
GLOBALSTAR M085 [+]     
1 37742U 11033D   24096.84195059 -.00000087  00000+0  95794-4 0  9996
2 37742  51.9846 116.0279 0000375  52.4902 121.1986 12.62269365588462
GLOBALSTAR M081 [+]     
1 37743U 11033E   24096.78859628 -.00000079  00000+0  13675-3 0  9997
2 37743  51.9938 118.7074 0000516  62.8192 108.5305 12.62263894588601
GLOBALSTAR M089 [+]     
1 37744U 11033F   24096.66996314 -.00000096  00000+0  42633-4 0  9995
2 37744  51.9929  73.3776 0000619 106.1969  65.0004 12.62261647589434
GLOBALSTAR M084 [+]     
1 38040U 11080A   24096.90685682 -.00000076  00000+0  15572-3 0  9996
2 38040  52.0008 299.7151 0000915 111.8676 357.1994 12.62273007567445
GLOBALSTAR M080 [+]     
1 38041U 11080B   24096.85921288 -.00000066  00000+0  20952-3 0  9993
2 38041  52.0059 301.3149 0001138 109.2676 262.1341 12.62270918567560
GLOBALSTAR M082 [+]     
1 38042U 11080C   24096.71442293 -.00000102  00000+0  11593-4 0  9996
2 38042  52.0066 257.1542 0000367  54.9391 318.1445 12.62267862568255
GLOBALSTAR M092 [+]     
1 38043U 11080D   24096.86063324 -.00000087  00000+0  92006-4 0  9997
2 38043  52.0108 347.0626 0000567 101.3414 336.8658 12.62277524566932
GLOBALSTAR M090 [+]     
1 38044U 11080E   24096.74057253 -.00000102  00000+0  84982-5 0  9992
2 38044  51.9876 251.4449 0000570  87.1523 285.9846 12.62267990568379
GLOBALSTAR M086 [+]     
1 38045U 11080F   24096.68807731 -.00000096  00000+0  42867-4 0  9997
2 38045  51.9889 252.1225 0001614  85.4355 288.5203 12.62269254568313
GLOBALSTAR M097 [+]     
1 39072U 13005A   24096.86995552 -.00000095  00000+0  46282-4 0  9990
2 39072  52.0033 165.6729 0000500  80.6965 279.3958 12.62262038515580
GLOBALSTAR M093 [+]     
1 39073U 13005B   24096.44743728 -.00000097  00000+0  39656-4 0  9990
2 39073  51.9796 160.9616 0000489  70.4794 289.6125 12.62262802515489
GLOBALSTAR M094 [+]     
1 39074U 13005C   24096.60584863 -.00000107  00000+0 -16690-4 0  9998
2 39074  51.9955  74.4200 0000568  54.9461 305.1459 12.62264159517114
GLOBALSTAR M096 [+]     
1 39075U 13005D   24096.77731162 -.00000088  00000+0  89036-4 0  9994
2 39075  52.0053 122.0728 0000452  51.3172 308.7735 12.62264168516051
GLOBALSTAR M078 [+]     
1 39076U 13005E   24096.59311931 -.00000188  00000+0 -47169-3 0  9995
2 39076  51.9867 207.7425 0000419 291.3133  68.7689 12.62260446514654
GLOBALSTAR M095 [+]     
1 39077U 13005F   24096.61878539 -.00000104  00000+0  39589-6 0  9998
2 39077  51.9792 205.0733 0000354  24.4135 335.6748 12.62276572514873
GLOBALSTAR M087 [+]     
1 52888U 22064A   24096.70227765 -.00000102  00000+0  49736-4 0  9998
2 52888  51.9745 101.1305 0009399 178.2743 181.8191 13.37569210 87828
